NORAD_CAT_ID,OBJECT_NAME,OBJECT_TYPE,EPOCH,MEAN_MOTION,ECCENTRICITY,INCLINATION,RA_OF_ASC_NODE,ARG_OF_PERICENTER,MEAN_ANOMALY,BSTAR,MEAN_MOTION_DOT,MEAN_MOTION_DDOT,TLE_LINE0,TLE_LINE1,TLE_LINE2,SEMIMAJOR_AXIS,PERIOD,APOGEE,PERIGEE,DECAYED
53899.0,STARLINK-5042,PAYLOAD,2024-03-16 21:58:12,15.0883708,0.0001292,53.2169,328.5374,105.8174,254.296,9.009e-05,1.146e-05,0.0,0 STARLINK-5042,1 53899U 22119P   24076.91541862  .00001146  00000-0  90090-4 0  9998,2 53899  53.2169 328.5374 0001292 105.8174 254.2960 15.08837080 82574,6917.889,95.438,540.648,538.861,0.0
53899.0,STARLINK-5042,PAYLOAD,2024-03-17 02:44:21,15.08836732,0.000133,53.2171,327.6462,108.478,251.6357,6.6919e-05,7.77e-06,0.0,0 STARLINK-5042,1 53899U 22119P   24077.11413903  .00000777  00000-0  66919-4 0  9997,2 53899  53.2171 327.6462 0001330 108.4780 251.6357 15.08836732 82608,6917.89,95.438,540.675,538.835,0.0
53899.0,STARLINK-5042,PAYLOAD,2024-03-17 21:48:59,15.0883851,0.0001294,53.2179,324.0787,110.1864,249.9267,0.00010947,1.455e-05,0.0,0 STARLINK-5042,1 53899U 22119P   24077.90901902  .00001455  00000-0  10947-3 0  9998,2 53899  53.2179 324.0787 0001294 110.1864 249.9267 15.08838510 82728,6917.885,95.438,540.645,538.855,0.0
53899.0,STARLINK-5042,PAYLOAD,2024-03-17 23:24:22,15.08839418,0.0001294,53.2179,323.7813,109.1589,250.9543,0.0001143,1.532e-05,0.0,0 STARLINK-5042,1 53899U 22119P   24077.97525846  .00001532  00000-0  11430-3 0  9998,2 53899  53.2179 323.7813 0001294 109.1589 250.9543 15.08839418 82318,6917.882,95.438,540.642,538.852,0.0
53899.0,STARLINK-5042,PAYLOAD,2024-03-18 21:39:46,15.08839239,0.0001263,53.2178,319.6181,107.0197,253.0933,0.00010907,1.448e-05,0.0,0 STARLINK-5042,1 53899U 22119P   24078.90262007  .00001448  00000-0  10907-3 0  9993,2 53899  53.2178 319.6181 0001263 107.0197 253.0933 15.08839239 82876,6917.883,95.438,540.621,538.874,0.0
53899.0,STARLINK-5042,PAYLOAD,2024-03-19 00:50:32,15.08840482,0.0001205,53.2175,319.0234,97.1555,262.9574,0.00011474,1.539e-05,0.0,0 STARLINK-5042,1 53899U 22119P   24079.03509965  .00001539  00000-0  11474-3 0  9996,2 53899  53.2175 319.0234 0001205  97.1555 262.9574 15.08840482 82477,6917.879,95.438,540.578,538.91,0.0
53899.0,STARLINK-5042,PAYLOAD,2024-03-19 23:05:56,15.08847014,0.0001301,53.2171,314.8584,80.786,279.3279,0.00013181,1.811e-05,0.0,0 STARLINK-5042,1 53899U 22119P   24079.96245483  .00001811  00000-0  13181-3 0  9990,2 53899  53.2171 314.8584 0001301  80.7860 279.3279 15.08847014 83033,6917.859,95.437,540.624,538.824,0.0
53899.0,STARLINK-5042,PAYLOAD,2024-03-20 21:21:20,15.08839314,0.0001379,53.2176,310.6972,69.8539,290.2602,1.8245e-05,2e-08,0.0,0 STARLINK-5042,1 53899U 22119P   24080.88981980  .00000002  00000-0  18245-4 0  9990,2 53899  53.2176 310.6972 0001379  69.8539 290.2602 15.08839314 82753,6917.882,95.438,540.701,538.794,0.0
53899.0,STARLINK-5042,PAYLOAD,2024-03-21 14:50:35,15.0884135,0.0001106,53.2171,307.4281,82.8367,277.2751,3.4552e-06,-2.33e-06,0.0,0 STARLINK-5042,1 53899U 22119P   24081.61846253 -.00000233  00000-0  34552-5 0  9992,2 53899  53.2171 307.4281 0001106  82.8367 277.2751 15.08841350 83289,6917.876,95.437,540.506,538.976,0.0
53899.0,STARLINK-5042,PAYLOAD,2024-03-21 21:12:07,15.08843594,0.0001205,53.2165,306.2396,85.9703,274.1427,1.8789e-05,1.1e-07,0.0,0 STARLINK-5042,1 53899U 22119P   24081.88341991  .00000011  00000-0  18789-4 0  9996,2 53899  53.2165 306.2396 0001205  85.9703 274.1427 15.08843594 83327,6917.869,95.437,540.568,538.901,0.0
53899.0,STARLINK-5042,PAYLOAD,2024-03-22 21:02:54,15.08826704,0.0001197,53.2162,301.7778,80.7942,279.3185,0.00032946,4.957e-05,0.0,0 STARLINK-5042,1 53899U 22119P   24082.87702168  .00004957  00000-0  32946-3 0  9996,2 53899  53.2162 301.7778 0001197  80.7942 279.3185 15.08826704 83058,6917.921,95.438,540.614,538.958,0.0
53899.0,STARLINK-5042,PAYLOAD,2024-03-23 00:13:40,15.08842771,0.0001165,53.2159,301.1822,84.6865,275.426,0.00015466,2.175e-05,0.0,0 STARLINK-5042,1 53899U 22119P   24083.00949674  .00002175  00000-0  15466-3 0  9995,2 53899  53.2159 301.1822 0001165  84.6865 275.4260 15.08842771 83075,6917.872,95.437,540.543,538.931,0.0
53899.0,STARLINK-5042,PAYLOAD,2024-03-23 20:53:41,15.08841462,0.0001381,53.2168,297.3138,102.6711,257.4436,2.0284e-05,3.5e-07,0.0,0 STARLINK-5042,1 53899U 22119P   24083.87062095  .00000035  00000-0  20284-4 0  9991,2 53899  53.2168 297.3138 0001381 102.6711 257.4436 15.08841462 83208,6917.876,95.437,540.696,538.786,0.0
53899.0,STARLINK-5042,PAYLOAD,2024-03-24 14:22:56,15.08837279,0.0001415,53.2169,294.0401,103.4066,256.7084,6.2577e-05,7.08e-06,0.0,0 STARLINK-5042,1 53899U 22119P   24084.59926391  .00000708  00000-0  62577-4 0  9997,2 53899  53.2169 294.0401 0001415 103.4066 256.7084 15.08837279 83736,6917.889,95.438,540.733,538.775,0.0
53899.0,STARLINK-5042,PAYLOAD,2024-03-24 20:44:29,15.08838887,0.0001321,53.2173,292.8543,101.2868,258.8273,7.2304e-05,8.63e-06,0.0,0 STARLINK-5042,1 53899U 22119P   24084.86422513  .00000863  00000-0  72304-4 0  9995,2 53899  53.2173 292.8543 0001321 101.2868 258.8273 15.08838887 83779,6917.884,95.438,540.663,538.835,0.0
53899.0,STARLINK-5042,PAYLOAD,2024-03-24 23:55:15,15.08839237,0.0001284,53.2171,292.2573,88.2011,271.9128,7.2812e-05,8.71e-06,0.0,0 STARLINK-5042,1 53899U 22119P   24084.99670534  .00000871  00000-0  72812-4 0  9990,2 53899  53.2171 292.2573 0001284  88.2011 271.9128 15.08839237 83377,6917.883,95.438,540.636,538.859,0.0
53899.0,STARLINK-5042,PAYLOAD,2024-03-25 06:16:47,15.08850358,0.0001496,53.2191,291.0712,83.9274,276.1889,0.00012162,1.649e-05,0.0,0 STARLINK-5042,1 53899U 22119P   24085.26165512  .00001649  00000-0  12162-3 0  9991,2 53899  53.2191 291.0712 0001496  83.9274 276.1889 15.08850358 83412,6917.849,95.437,540.749,538.679,0.0
53899.0,STARLINK-5042,PAYLOAD,2024-03-25 20:35:16,15.0883766,0.0001445,53.2174,288.397,98.0054,262.1102,6.0413e-05,6.74e-06,0.0,0 STARLINK-5042,1 53899U 22119P   24085.85782736  .00000674  00000-0  60413-4 0  9999,2 53899  53.2174 288.3970 0001445  98.0054 262.1102 15.08837660 83509,6917.888,95.438,540.752,538.753,0.0
53899.0,STARLINK-5042,PAYLOAD,2024-03-26 12:29:07,15.08836689,0.0001525,53.2185,285.4244,98.2193,261.8972,0.00015454,2.172e-05,0.0,0 STARLINK-5042,1 53899U 22119P   24086.52022492  .00002172  00000-0  15454-3 0  9999,2 53899  53.2185 285.4244 0001525  98.2193 261.8972 15.08836689 84027,6917.891,95.438,540.81,538.701,0.0
53899.0,STARLINK-5042,PAYLOAD,2024-03-26 20:26:03,15.08835127,0.0001385,53.2169,283.9361,89.8786,270.2365,0.00010297,1.351e-05,0.0,0 STARLINK-5042,1 53899U 22119P   24086.85142824  .00001351  00000-0  10297-3 0  9995,2 53899  53.2169 283.9361 0001385  89.8786 270.2365 15.08835127 84071,6917.895,95.438,540.718,538.802,0.0
53899.0,STARLINK-5042,PAYLOAD,2024-03-27 12:19:55,15.08839035,0.0002378,53.2165,280.9589,80.4075,279.7185,-8.0963e-05,-1.577e-05,0.0,0 STARLINK-5042,1 53899U 22119P   24087.51383330 -.00001577  00000-0 -80963-4 0  9998,2 53899  53.2165 280.9589 0002378  80.4075 279.7185 15.08839035 83757,6917.883,95.438,541.393,538.103,0.0
53899.0,STARLINK-5042,PAYLOAD,2024-03-27 20:16:51,15.08827843,0.00014,53.2177,279.4743,89.4635,270.6518,-2.084e-05,-6.19e-06,0.0,0 STARLINK-5042,1 53899U 22119P   24087.84503961 -.00000619  00000-0 -20840-4 0  9992,2 53899  53.2177 279.4743 0001400  89.4635 270.6518 15.08827843 83801,6917.918,95.438,540.751,538.814,0.0
53899.0,STARLINK-5042,PAYLOAD,2024-03-28 12:10:42,15.08835185,0.0001327,53.2169,276.5011,86.7742,273.3402,7.59e-05,9.2e-06,0.0,0 STARLINK-5042,1 53899U 22119P   24088.50743376  .00000920  00000-0  75900-4 0  9992,2 53899  53.2169 276.5011 0001327  86.7742 273.3402 15.08835185 83906,6917.895,95.438,540.678,538.842,0.0
53899.0,STARLINK-5042,PAYLOAD,2024-03-28 21:43:00,15.08842918,0.0001238,53.2162,274.7159,71.1863,288.9263,7.8066e-05,9.55e-06,0.0,0 STARLINK-5042,1 53899U 22119P   24088.90486948  .00000955  00000-0  78066-4 0  9999,2 53899  53.2162 274.7159 0001238  71.1863 288.9263 15.08842918 84387,6917.871,95.437,540.593,538.88,0.0
53899.0,STARLINK-5042,PAYLOAD,2024-03-29 12:01:29,15.08838679,0.0002101,53.2169,272.0399,87.1039,273.0193,0.00020628,2.996e-05,0.0,0 STARLINK-5042,1 53899U 22119P   24089.50103022  .00002996  00000-0  20628-3 0  9992,2 53899  53.2169 272.0399 0002101  87.1039 273.0193 15.08838679 84479,6917.884,95.438,541.203,538.296,0.0
53899.0,STARLINK-5042,PAYLOAD,2024-03-29 18:23:01,15.08839644,0.0001974,53.2159,270.8499,89.2223,270.8995,0.0001926,2.778e-05,0.0,0 STARLINK-5042,1 53899U 22119P   24089.76598973  .00002778  00000-0  19260-3 0  9991,2 53899  53.2159 270.8499 0001974  89.2223 270.8995 15.08839644 84513,6917.881,95.438,541.112,538.381,0.0
53899.0,STARLINK-5042,PAYLOAD,2024-03-30 11:52:16,15.08843027,0.0002034,53.2123,267.5769,93.0391,267.0834,4.7569e-05,4.69e-06,0.0,0 STARLINK-5042,1 53899U 22119P   24090.49463109  .00000469  00000-0  47569-4 0  9994,2 53899  53.2123 267.5769 0002034  93.0391 267.0834 15.08843027 84200,6917.871,95.437,541.143,538.329,0.0
53899.0,STARLINK-5042,PAYLOAD,2024-03-30 18:13:48,15.08833849,0.0001175,53.2157,266.3889,87.8907,272.222,0.00011213,1.497e-05,0.0,0 STARLINK-5042,1 53899U 22119P   24090.75959441  .00001497  00000-0  11213-3 0  9990,2 53899  53.2157 266.3889 0001175  87.8907 272.2220 15.08833849 84248,6917.899,95.438,540.577,538.951,0.0
53899.0,STARLINK-5042,PAYLOAD,2024-03-31 11:43:03,15.08833202,0.0001865,53.2159,263.1193,88.4794,271.6412,9.5908e-05,1.238e-05,0.0,0 STARLINK-5042,1 53899U 22119P   24091.48823497  .00001238  00000-0  95908-4 0  9999,2 53899  53.2159 263.1193 0001865  88.4794 271.6412 15.08833202 84777,6917.901,95.438,541.056,538.476,0.0
53899.0,STARLINK-5042,PAYLOAD,2024-03-31 18:04:35,15.08839499,0.0001232,53.2169,261.9292,80.7192,279.3939,2.2063e-05,6.3e-07,0.0,0 STARLINK-5042,1 53899U 22119P   24091.75319309  .00000063  00000-0  22063-4 0  9998,2 53899  53.2169 261.9292 0001232  80.7192 279.3939 15.08839499 84817,6917.882,95.438,540.599,538.895,0.0
